[{"OBJECT_NAME":"STARLINK-30470","OBJECT_ID":"2023-146B","EPOCH":"2026-03-09T22:00:01.999584","MEAN_MOTION":15.12627424,"ECCENTRICITY":0.00017316,"INCLINATION":42.9994,"RA_OF_ASC_NODE":312.1287,"ARG_OF_PERICENTER":249.3024,"MEAN_ANOMALY":345.016,"EPHEMERIS_TYPE":0,"CLASSIFICATION_TYPE":"U","NORAD_CAT_ID":57892,"ELEMENT_SET_NO":999,"REV_AT_EPOCH":573,"BSTAR":0.087605194,"MEAN_MOTION_DOT":0.01705465,"MEAN_MOTION_DDOT":0},{"OBJECT_NAME":"SCS-01 C","OBJECT_ID":"2025-100C","EPOCH":"2026-03-09T21:59:59.204544","MEAN_MOTION":15.20980224,"ECCENTRICITY":0.00246678,"INCLINATION":97.3736,"RA_OF_ASC_NODE":143.8302,"ARG_OF_PERICENTER":335.341,"MEAN_ANOMALY":24.6645,"EPHEMERIS_TYPE":0,"CLASSIFICATION_TYPE":"U","NORAD_CAT_ID":63984,"ELEMENT_SET_NO":999,"REV_AT_EPOCH":4553,"BSTAR":0.00052394566,"MEAN_MOTION_DOT":0.00011645,"MEAN_MOTION_DDOT":0}]
